<?xml version="1.0" encoding="UTF-8"?>
<ndm xmlns:xsi="https://www.w3.org/2001/XMLSchema-instance" xsi:noNamespaceSchemaLocation="https://sanaregistry.org/r/ndmxml/ndmxml-1.0-master.xsd">
<omm id="CCSDS_OMM_VERS" version="2.0">
<header><CREATION_DATE/><ORIGINATOR/></header><body><segment><metadata><OBJECT_NAME>ISS (ZARYA)</OBJECT_NAME><OBJECT_ID>1998-067A</OBJECT_ID><CENTER_NAME>EARTH</CENTER_NAME><REF_FRAME>TEME</REF_FRAME><TIME_SYSTEM>UTC</TIME_SYSTEM><MEAN_ELEMENT_THEORY>SGP4</MEAN_ELEMENT_THEORY></metadata><data><meanElements><EPOCH>2020-06-25T13:08:18.802176</EPOCH><MEAN_MOTION>15.49459678</MEAN_MOTION><ECCENTRICITY>.0002519</ECCENTRICITY><INCLINATION>51.6448</INCLINATION><RA_OF_ASC_NODE>307.0852</RA_OF_ASC_NODE><ARG_OF_PERICENTER>82.7533</ARG_OF_PERICENTER><MEAN_ANOMALY>354.3691</MEAN_ANOMALY></meanElements><tleParameters><EPHEMERIS_TYPE>0</EPHEMERIS_TYPE><CLASSIFICATION_TYPE>U</CLASSIFICATION_TYPE><NORAD_CAT_ID>25544</NORAD_CAT_ID><ELEMENT_SET_NO>999</ELEMENT_SET_NO><REV_AT_EPOCH>23331</REV_AT_EPOCH><BSTAR>.19557E-4</BSTAR><MEAN_MOTION_DOT>6.43E-6</MEAN_MOTION_DOT><MEAN_MOTION_DDOT>0</MEAN_MOTION_DDOT></tleParameters></data></segment></body></omm>
<omm id="CCSDS_OMM_VERS" version="2.0">
<header><CREATION_DATE/><ORIGINATOR/></header><body><segment><metadata><OBJECT_NAME>KESTREL EYE IIM (KE2M)</OBJECT_NAME><OBJECT_ID>1998-067NE</OBJECT_ID><CENTER_NAME>EARTH</CENTER_NAME><REF_FRAME>TEME</REF_FRAME><TIME_SYSTEM>UTC</TIME_SYSTEM><MEAN_ELEMENT_THEORY>SGP4</MEAN_ELEMENT_THEORY></metadata><data><meanElements><EPOCH>2020-06-25T12:33:55.142496</EPOCH><MEAN_MOTION>15.70248923</MEAN_MOTION><ECCENTRICITY>.0003039</ECCENTRICITY><INCLINATION>51.6332</INCLINATION><RA_OF_ASC_NODE>240.1410</RA_OF_ASC_NODE><ARG_OF_PERICENTER>110.2440</ARG_OF_PERICENTER><MEAN_ANOMALY>249.8884</MEAN_ANOMALY></meanElements><tleParameters><EPHEMERIS_TYPE>0</EPHEMERIS_TYPE><CLASSIFICATION_TYPE>U</CLASSIFICATION_TYPE><NORAD_CAT_ID>42982</NORAD_CAT_ID><ELEMENT_SET_NO>999</ELEMENT_SET_NO><REV_AT_EPOCH>15234</REV_AT_EPOCH><BSTAR>.68494E-4</BSTAR><MEAN_MOTION_DOT>7.911E-5</MEAN_MOTION_DOT><MEAN_MOTION_DDOT>0</MEAN_MOTION_DDOT></tleParameters></data></segment></body></omm>
<omm id="CCSDS_OMM_VERS" version="2.0">
<header><CREATION_DATE/><ORIGINATOR/></header><body><segment><metadata><OBJECT_NAME>DELLINGR (RBLE)</OBJECT_NAME><OBJECT_ID>1998-067NJ</OBJECT_ID><CENTER_NAME>EARTH</CENTER_NAME><REF_FRAME>TEME</REF_FRAME><TIME_SYSTEM>UTC</TIME_SYSTEM><MEAN_ELEMENT_THEORY>SGP4</MEAN_ELEMENT_THEORY></metadata><data><meanElements><EPOCH>2020-06-25T10:45:47.960064</EPOCH><MEAN_MOTION>15.70929428</MEAN_MOTION><ECCENTRICITY>.0001760</ECCENTRICITY><INCLINATION>51.6345</INCLINATION><RA_OF_ASC_NODE>238.9614</RA_OF_ASC_NODE><ARG_OF_PERICENTER>66.1596</ARG_OF_PERICENTER><MEAN_ANOMALY>293.9586</MEAN_ANOMALY></meanElements><tleParameters><EPHEMERIS_TYPE>0</EPHEMERIS_TYPE><CLASSIFICATION_TYPE>U</CLASSIFICATION_TYPE><NORAD_CAT_ID>43021</NORAD_CAT_ID><ELEMENT_SET_NO>999</ELEMENT_SET_NO><REV_AT_EPOCH>14812</REV_AT_EPOCH><BSTAR>.68434E-4</BSTAR><MEAN_MOTION_DOT>8.144E-5</MEAN_MOTION_DOT><MEAN_MOTION_DDOT>0</MEAN_MOTION_DDOT></tleParameters></data></segment></body></omm>
</ndm>
