ISS (ZARYA)             
1 25544U 98067A   20177.54743984  .00000643  00000-0  19557-4 0  9995
2 25544  51.6448 307.0852 0002519  82.7533 354.3691 15.49459678233311
KESTREL EYE IIM (KE2M)  
1 42982U 98067NE  20177.52355489  .00007911  00000-0  68494-4 0  9996
2 42982  51.6332 240.1410 0003039 110.2440 249.8884 15.70248923152345
DELLINGR (RBLE)         
1 43021U 98067NJ  20177.44847176  .00008144  00000-0  68434-4 0  9994
2 43021  51.6345 238.9614 0001760  66.1596 293.9586 15.70929428148121
